# From MPEC 2020-AA5
390P/Gibbs,e,18.5595,152.2807,232.3357,5.797354,0.0706089,0.70679771,357.0891,02/10.0/2020,2000,g 12.0,4.0
# From MPEC 2020-AA5
391P/Kowalski,e,21.2760,124.7343,186.5442,4.674559,0.0975199,0.12078354,67.6918,02/10.0/2020,2000,g  8.0,4.0
# From MPEC 2020-AA5
392P/LINEAR,e,4.9294,24.8890,71.9963,6.150353,0.0646181,0.68290706,356.7142,02/10.0/2020,2000,g 14.5,4.0
# From MPC118845
393P/Spacewatch-Hill,e,16.7975,36.4206,327.9617,4.782126,0.0942481,0.11994047,10.3342,02/10.0/2020,2000,g 11.0,4.0
# From MPC107687
1I/`Oumuamua,h,09/09.4886/2017,122.6778,24.5997,241.6845,1.199252,0.255240,2000,23.0,2.0
# From MPC119999
2I/Borisov,h,12/08.5557/2019,44.0528,308.1479,209.1256,3.356506,2.006528,2000,11.0,4.0
